{
  "type": "FeatureCollection",
  "features": [
    {
      "type": "Feature",
      "properties": {
        "norad_id": 66433,
        "name": "STARLINK-35457",
        "group": "last-30-days",
        "lat": -18.297498262602822,
        "lon": 37.56559641567578,
        "alt_km": 445.32241951750075,
        "timestamp": "2025-12-10T21:43:20.860926+00:00",
        "meta_object_name": "STARLINK-35457",
        "meta_object_id": "2025-259M",
        "meta_epoch": "2025-12-10T16:00:01.999584",
        "meta_mean_motion": 15.40643152,
        "meta_eccentricity": 0.0001277,
        "meta_inclination": 43,
        "meta_ra_of_asc_node": 59.7241,
        "meta_arg_of_pericenter": 278.2599,
        "meta_mean_anomaly": 170.4796,
        "meta_ephemeris_type": 0,
        "meta_classification_type": "U",
        "meta_norad_cat_id": 66433,
        "meta_element_set_no": 999,
        "meta_rev_at_epoch": 594,
        "meta_bstar": 0.0027821042,
        "meta_mean_motion_dot": 0.00117495,
        "meta_mean_motion_ddot": 0,
        "tle_line1": "1 66433U 25259M   25344.66668981  .00117495  00000+0  27821-2 0  9991",
        "tle_line2": "2 66433  43.0000  59.7241 0001277 278.2599 170.4796 15.40643152  5941"
      },
      "geometry": {
        "type": "Point",
        "coordinates": [
          37.56559641567578,
          -18.297498262602822
        ]
      }
    },
    {
      "type": "Feature",
      "properties": {
        "norad_id": 66434,
        "name": "STARLINK-35389",
        "group": "last-30-days",
        "lat": -10.093865762751939,
        "lon": 47.30637264670286,
        "alt_km": 444.9860974038129,
        "timestamp": "2025-12-10T21:43:20.860936+00:00",
        "meta_object_name": "STARLINK-35389",
        "meta_object_id": "2025-259N",
        "meta_epoch": "2025-12-10T16:00:01.999584",
        "meta_mean_motion": 15.40571521,
        "meta_eccentricity": 0.00014374,
        "meta_inclination": 42.9999,
        "meta_ra_of_asc_node": 59.6936,
        "meta_arg_of_pericenter": 268.6171,
        "meta_mean_anomaly": 192.7091,
        "meta_ephemeris_type": 0,
        "meta_classification_type": "U",
        "meta_norad_cat_id": 66434,
        "meta_element_set_no": 999,
        "meta_rev_at_epoch": 594,
        "meta_bstar": 0.0027755991,
        "meta_mean_motion_dot": 0.00116933,
        "meta_mean_motion_ddot": 0,
        "tle_line1": "1 66434U 25259N   25344.66668981  .00116933  00000+0  27756-2 0  9995",
        "tle_line2": "2 66434  42.9999  59.6936 0001437 268.6171 192.7091 15.40571521  5949"
      },
      "geometry": {
        "type": "Point",
        "coordinates": [
          47.30637264670286,
          -10.093865762751939
        ]
      }
    },
    {
      "type": "Feature",
      "properties": {
        "norad_id": 66435,
        "name": "STARLINK-35502",
        "group": "last-30-days",
        "lat": -1.7316659749085828,
        "lon": 56.43135533934799,
        "alt_km": 443.76564241973756,
        "timestamp": "2025-12-10T21:43:20.860949+00:00",
        "meta_object_name": "STARLINK-35502",
        "meta_object_id": "2025-259P",
        "meta_epoch": "2025-12-10T16:00:01.999584",
        "meta_mean_motion": 15.40664191,
        "meta_eccentricity": 0.00011512,
        "meta_inclination": 43,
        "meta_ra_of_asc_node": 59.6647,
        "meta_arg_of_pericenter": 289.9843,
        "meta_mean_anomaly": 183.6388,
        "meta_ephemeris_type": 0,
        "meta_classification_type": "U",
        "meta_norad_cat_id": 66435,
        "meta_element_set_no": 999,
        "meta_rev_at_epoch": 594,
        "meta_bstar": 0.0010032076,
        "meta_mean_motion_dot": 0.00041782,
        "meta_mean_motion_ddot": 0,
        "tle_line1": "1 66435U 25259P   25344.66668981  .00041782  00000+0  10032-2 0  9994",
        "tle_line2": "2 66435  43.0000  59.6647 0001151 289.9843 183.6388 15.40664191  5943"
      },
      "geometry": {
        "type": "Point",
        "coordinates": [
          56.43135533934799,
          -1.7316659749085828
        ]
      }
    },
    {
      "type": "Feature",
      "properties": {
        "norad_id": 66436,
        "name": "STARLINK-35501",
        "group": "last-30-days",
        "lat": 15.023950180999364,
        "lon": 74.96828529013672,
        "alt_km": 441.995543827029,
        "timestamp": "2025-12-10T21:43:20.860960+00:00",
        "meta_object_name": "STARLINK-35501",
        "meta_object_id": "2025-259Q",
        "meta_epoch": "2025-12-10T16:00:01.999584",
        "meta_mean_motion": 15.40597558,
        "meta_eccentricity": 0.00012641,
        "meta_inclination": 43,
        "meta_ra_of_asc_node": 59.6026,
        "meta_arg_of_pericenter": 271.5925,
        "meta_mean_anomaly": 226.9402,
        "meta_ephemeris_type": 0,
        "meta_classification_type": "U",
        "meta_norad_cat_id": 66436,
        "meta_element_set_no": 999,
        "meta_rev_at_epoch": 594,
        "meta_bstar": 0.0041002208,
        "meta_mean_motion_dot": 0.0017435,
        "meta_mean_motion_ddot": 0,
        "tle_line1": "1 66436U 25259Q   25344.66668981  .00174350  00000+0  41002-2 0  9994",
        "tle_line2": "2 66436  43.0000  59.6026 0001264 271.5925 226.9402 15.40597558  5948"
      },
      "geometry": {
        "type": "Point",
        "coordinates": [
          74.96828529013672,
          15.023950180999364
        ]
      }
    },
    {
      "type": "Feature",
      "properties": {
        "norad_id": 66437,
        "name": "STARLINK-35474",
        "group": "last-30-days",
        "lat": 22.897667438364742,
        "lon": 85.15036461350869,
        "alt_km": 440.9129017875284,
        "timestamp": "2025-12-10T21:43:20.860971+00:00",
        "meta_object_name": "STARLINK-35474",
        "meta_object_id": "2025-259R",
        "meta_epoch": "2025-12-10T16:00:01.999584",
        "meta_mean_motion": 15.40639319,
        "meta_eccentricity": 0.00016211,
        "meta_inclination": 43.0001,
        "meta_ra_of_asc_node": 59.5718,
        "meta_arg_of_pericenter": 277.6481,
        "meta_mean_anomaly": 233.3006,
        "meta_ephemeris_type": 0,
        "meta_classification_type": "U",
        "meta_norad_cat_id": 66437,
        "meta_element_set_no": 999,
        "meta_rev_at_epoch": 594,
        "meta_bstar": 0.0026506572,
        "meta_mean_motion_dot": 0.00111832,
        "meta_mean_motion_ddot": 0,
        "tle_line1": "1 66437U 25259R   25344.66668981  .00111832  00000+0  26507-2 0  9994",
        "tle_line2": "2 66437  43.0001  59.5718 0001621 277.6481 233.3006 15.40639319  5942"
      },
      "geometry": {
        "type": "Point",
        "coordinates": [
          85.15036461350869,
          22.897667438364742
        ]
      }
    },
    {
      "type": "Feature",
      "properties": {
        "norad_id": 66438,
        "name": "STARLINK-34681",
        "group": "last-30-days",
        "lat": 30.03304929177848,
        "lon": 96.51290992245805,
        "alt_km": 439.6567785303678,
        "timestamp": "2025-12-10T21:43:20.860984+00:00",
        "meta_object_name": "STARLINK-34681",
        "meta_object_id": "2025-259S",
        "meta_epoch": "2025-12-10T16:00:01.999584",
        "meta_mean_motion": 15.40603026,
        "meta_eccentricity": 0.00012404,
        "meta_inclination": 43.0001,
        "meta_ra_of_asc_node": 59.542,
        "meta_arg_of_pericenter": 290.5108,
        "meta_mean_anomaly": 232.8824,
        "meta_ephemeris_type": 0,
        "meta_classification_type": "U",
        "meta_norad_cat_id": 66438,
        "meta_element_set_no": 999,
        "meta_rev_at_epoch": 583,
        "meta_bstar": 0.0041723653,
        "meta_mean_motion_dot": 0.0017753,
        "meta_mean_motion_ddot": 0,
        "tle_line1": "1 66438U 25259S   25344.66668981  .00177530  00000+0  41724-2 0  9990",
        "tle_line2": "2 66438  43.0001  59.5420 0001240 290.5108 232.8824 15.40603026  5836"
      },
      "geometry": {
        "type": "Point",
        "coordinates": [
          96.51290992245805,
          30.03304929177848
        ]
      }
    },
    {
      "type": "Feature",
      "properties": {
        "norad_id": 66439,
        "name": "STARLINK-35327",
        "group": "last-30-days",
        "lat": 6.730235395547588,
        "lon": 65.53688004616679,
        "alt_km": 443.09574864355363,
        "timestamp": "2025-12-10T21:43:20.860994+00:00",
        "meta_object_name": "STARLINK-35327",
        "meta_object_id": "2025-259T",
        "meta_epoch": "2025-12-10T16:00:01.999584",
        "meta_mean_motion": 15.40604168,
        "meta_eccentricity": 0.00010011,
        "meta_inclination": 43,
        "meta_ra_of_asc_node": 59.6356,
        "meta_arg_of_pericenter": 267.5416,
        "meta_mean_anomaly": 218.5499,
        "meta_ephemeris_type": 0,
        "meta_classification_type": "U",
        "meta_norad_cat_id": 66439,
        "meta_element_set_no": 999,
        "meta_rev_at_epoch": 594,
        "meta_bstar": 0.0034473209,
        "meta_mean_motion_dot": 0.00146023,
        "meta_mean_motion_ddot": 0,
        "tle_line1": "1 66439U 25259T   25344.66668981  .00146023  00000+0  34473-2 0  9997",
        "tle_line2": "2 66439  43.0000  59.6356 0001001 267.5416 218.5499 15.40604168  5945"
      },
      "geometry": {
        "type": "Point",
        "coordinates": [
          65.53688004616679,
          6.730235395547588
        ]
      }
    }
  ]
}